OBJECT_NAME,OBJECT_ID,EPOCH,MEAN_MOTION,ECCENTRICITY,INCLINATION,RA_OF_ASC_NODE,ARG_OF_PERICENTER,MEAN_ANOMALY,EPHEMERIS_TYPE,CLASSIFICATION_TYPE,NORAD_CAT_ID,ELEMENT_SET_NO,REV_AT_EPOCH,BSTAR,MEAN_MOTION_DOT,MEAN_MOTION_DDOT
STARLINK-33807,2025-071AB,2026-06-20T06:00:02.000160,15.34395064,.00007436,53.1604,21.1448,73.2089,353.2724,0,U,63518,999,590,-.51741088E-3,-.17813E-3,0
STARLINK-33787,2025-071AC,2026-06-20T00:13:56.226720,15.30217251,.00012783,53.1604,26.8831,97.7698,262.3448,0,U,63519,999,6803,.53276882E-3,.15461E-3,0
STARLINK-11669 [DTC],2025-075A,2026-06-19T13:13:37.017696,15.70850614,.00025703,42.9989,259.3789,293.1953,66.8643,0,U,63548,999,6927,.10404241E-2,.135317E-2,0
STARLINK-11665 [DTC],2025-075B,2026-06-19T15:23:24.461376,15.71032847,.00018642,42.9988,259.2139,297.5307,62.5371,0,U,63549,999,6928,.14756895E-2,.194987E-2,0
STARLINK-11667 [DTC],2025-075C,2026-06-19T14:22:25.310784,15.70899345,.00022971,43.0010,259.7662,269.6083,90.4522,0,U,63550,999,6927,.11436865E-2,.149346E-2,0
STARLINK-11695 [DTC],2025-075D,2026-06-19T13:14:55.785120,15.70870638,.00022183,42.9976,259.3835,293.1829,66.8804,0,U,63551,999,6927,.12376497E-2,.161699E-2,0
STARLINK-11685 [DTC],2025-075E,2026-06-19T07:22:40.113408,15.70855431,.00038532,42.9998,260.9981,290.9143,69.1312,0,U,63552,999,6923,.10947417E-2,.142584E-2,0
STARLINK-11697 [DTC],2025-075F,2026-06-20T06:23:42.064512,15.70879643,.00013519,42.9979,255.2904,223.7264,136.3497,0,U,63553,999,6938,.10764965E-2,.140268E-2,0
STARLINK-11680 [DTC],2025-075G,2026-06-20T07:01:55.880832,15.70825875,.00024856,42.9955,255.5008,286.2366,73.8228,0,U,63554,999,6938,.15205215E-2,.199296E-2,0
STARLINK-11626 [DTC],2025-075J,2026-06-19T16:09:16.504416,15.70867931,.00019555,43.0000,259.4650,275.9395,84.1250,0,U,63556,999,6928,.82775414E-3,.107273E-2,0
STARLINK-11668 [DTC],2025-075K,2026-06-19T14:30:04.198464,15.70877722,.00018731,43.0002,259.8058,266.7446,93.3207,0,U,63557,999,6927,.94850583E-3,.123276E-2,0
STARLINK-11657 [DTC],2025-075L,2026-06-20T05:22:43.783968,15.70944336,.00006387,42.9985,255.8458,340.6361,19.4482,0,U,63558,999,6937,.13146308E-2,.172538E-2,0
STARLINK-11606 [DTC],2025-075M,2026-06-20T06:08:24.572544,15.71066114,.00015544,42.9965,255.2008,236.6571,123.4148,0,U,63559,999,6938,.19064455E-2,.254209E-2,0
STARLINK-11592 [DTC],2025-075N,2026-06-19T06:06:23.996160,15.70931639,.00027996,42.9992,261.4646,287.2069,72.8492,0,U,63560,999,6922,.11594198E-2,.151663E-2,0
STARLINK-32953,2025-075P,2026-06-20T01:45:59.638752,15.27591625,.00011777,43.0026,52.6002,290.6712,69.4014,0,U,63561,999,6758,.74951384E-3,.20427E-3,0
STARLINK-32951,2025-075Q,2026-06-20T00:06:16.045632,15.27578631,.00024412,43.0037,52.9132,247.8638,112.1955,0,U,63562,999,6758,.53455745E-3,.14476E-3,0
STARLINK-32958,2025-075R,2026-06-19T23:51:27.834624,15.27594183,.00014646,43.0040,52.8629,274.0792,85.9893,0,U,63563,999,6757,.84031031E-3,.22943E-3,0
STARLINK-32928,2025-075S,2026-06-20T01:01:33.990528,15.27598298,.00012025,43.0008,52.3696,256.6525,103.4192,0,U,63564,999,6759,.57785645E-3,.15682E-3,0
STARLINK-32687,2025-075T,2026-06-20T00:04:23.527776,15.27627731,.00015778,43.0035,52.9051,273.9688,86.0984,0,U,63565,999,6758,.81973297E-3,.22397E-3,0
STARLINK-32950,2025-075U,2026-06-20T02:28:18.346368,15.27594668,.00010989,43.0010,51.8985,275.7209,84.3517,0,U,63566,999,6759,.45678615E-3,.12334E-3,0
STARLINK-32954,2025-075V,2026-06-20T06:00:02.000160,15.27574167,.0001548,43.0031,51.2697,266.7918,112.0025,0,U,63567,999,581,.17693899E-3,.4609E-4,0
STARLINK-32940,2025-075W,2026-06-20T01:20:03.748416,15.27602516,.00011151,43.0045,52.4350,262.5077,97.5648,0,U,63568,999,6758,.57349859E-3,.15563E-3,0
STARLINK-32959,2025-076A,2026-06-20T03:21:29.736000,15.27569438,.00012064,43.0030,107.0918,276.2037,83.8678,0,U,63569,999,6745,.57792471E-3,.1567E-3,0
STARLINK-32956,2025-076B,2026-06-20T05:06:32.976288,15.27605050,.00014802,43.0035,105.9117,268.6910,91.3773,0,U,63570,999,6746,.6403291E-3,.17413E-3,0
STARLINK-33722,2025-076C,2026-06-20T03:53:25.481472,15.27591939,.00015338,42.9950,102.8713,258.0484,102.0196,0,U,63571,999,6749,.4400617E-3,.11872E-3,0
STARLINK-33739,2025-076D,2026-06-20T03:09:12.726720,15.27606892,.0001372,43.0036,103.4991,262.0523,98.0173,0,U,63572,999,6749,.47201051E-3,.1276E-3,0
STARLINK-33683,2025-076E,2026-06-20T03:07:22.908864,15.27593120,.00009646,43.0039,103.4900,265.1868,94.8874,0,U,63573,999,6749,.57298123E-3,.15545E-3,0
STARLINK-33732,2025-076G,2026-06-19T23:40:33.769344,15.27593867,.00004739,42.9995,104.1364,265.5789,94.5008,0,U,63575,999,6747,.38583378E-3,.10375E-3,0
STARLINK-33800,2025-076H,2026-06-20T05:20:11.103072,15.27617358,.00017313,43.0027,102.4538,268.2245,91.8408,0,U,63576,999,6751,.44407431E-3,.11992E-3,0
STARLINK-33632,2025-076J,2026-06-20T04:37:50.016864,15.27572843,.00008549,43.0002,103.1004,249.3835,110.6925,0,U,63577,999,6750,.82563328E-3,.22522E-3,0
