STARLINK-33807          
1 63518U 25071AB  26171.25002315 -.00017813  00000+0 -51741-3 0  9995
2 63518  53.1604  21.1448 0000743  73.2089 353.2724 15.34395064  5907
STARLINK-33787          
1 63519U 25071AC  26171.00967855  .00015461  00000+0  53277-3 0  9999
2 63519  53.1604  26.8831 0001278  97.7698 262.3448 15.30217251 68030
STARLINK-11669 [DTC]    
1 63548U 25075A   26170.55112289  .00135317  00000+0  10404-2 0  9994
2 63548  42.9989 259.3789 0002570 293.1953  66.8643 15.70850614 69272
STARLINK-11665 [DTC]    
1 63549U 25075B   26170.64125534  .00194987  00000+0  14757-2 0  9995
2 63549  42.9988 259.2139 0001864 297.5307  62.5371 15.71032847 69289
STARLINK-11667 [DTC]    
1 63550U 25075C   26170.59890406  .00149346  00000+0  11437-2 0  9999
2 63550  43.0010 259.7662 0002297 269.6083  90.4522 15.70899345 69277
STARLINK-11695 [DTC]    
1 63551U 25075D   26170.55203455  .00161699  00000+0  12376-2 0  9996
2 63551  42.9976 259.3835 0002218 293.1829  66.8804 15.70870638 69272
STARLINK-11685 [DTC]    
1 63552U 25075E   26170.30740872  .00142584  00000+0  10947-2 0  9993
2 63552  42.9998 260.9981 0003853 290.9143  69.1312 15.70855431 69237
STARLINK-11697 [DTC]    
1 63553U 25075F   26171.26645908  .00140268  00000+0  10765-2 0  9999
2 63553  42.9979 255.2904 0001351 223.7264 136.3497 15.70879643 69386
STARLINK-11680 [DTC]    
1 63554U 25075G   26171.29300788  .00199296  00000+0  15205-2 0  9996
2 63554  42.9955 255.5008 0002485 286.2366  73.8228 15.70825875 69380
STARLINK-11626 [DTC]    
1 63556U 25075J   26170.67310769  .00107273  00000+0  82775-3 0  9990
2 63556  43.0000 259.4650 0001955 275.9395  84.1250 15.70867931 69287
STARLINK-11668 [DTC]    
1 63557U 25075K   26170.60421526  .00123276  00000+0  94851-3 0  9997
2 63557  43.0002 259.8058 0001873 266.7446  93.3207 15.70877722 69272
STARLINK-11657 [DTC]    
1 63558U 25075L   26171.22411787  .00172538  00000+0  13146-2 0  9997
2 63558  42.9985 255.8458 0000638 340.6361  19.4482 15.70944336 69378
STARLINK-11606 [DTC]    
1 63559U 25075M   26171.25583996  .00254209  00000+0  19064-2 0  9994
2 63559  42.9965 255.2008 0001554 236.6571 123.4148 15.71066114 69383
STARLINK-11592 [DTC]    
1 63560U 25075N   26170.25444440  .00151663  00000+0  11594-2 0  9995
2 63560  42.9992 261.4646 0002799 287.2069  72.8492 15.70931639 69222
STARLINK-32953          
1 63561U 25075P   26171.07360693  .00020427  00000+0  74951-3 0  9994
2 63561  43.0026  52.6002 0001177 290.6712  69.4014 15.27591625 67589
STARLINK-32951          
1 63562U 25075Q   26171.00435238  .00014476  00000+0  53456-3 0  9990
2 63562  43.0037  52.9132 0002441 247.8638 112.1955 15.27578631 67587
STARLINK-32958          
1 63563U 25075R   26170.99407216  .00022943  00000+0  84031-3 0  9994
2 63563  43.0040  52.8629 0001464 274.0792  85.9893 15.27594183 67576
STARLINK-32928          
1 63564U 25075S   26171.04275452  .00015682  00000+0  57786-3 0  9996
2 63564  43.0008  52.3696 0001202 256.6525 103.4192 15.27598298 67591
STARLINK-32687          
1 63565U 25075T   26171.00305009  .00022397  00000+0  81973-3 0  9991
2 63565  43.0035  52.9051 0001577 273.9688  86.0984 15.27627731 67589
STARLINK-32950          
1 63566U 25075U   26171.10299012  .00012334  00000+0  45679-3 0  9992
2 63566  43.0010  51.8985 0001098 275.7209  84.3517 15.27594668 67590
STARLINK-32954          
1 63567U 25075V   26171.25002315  .00004609  00000+0  17694-3 0  9999
2 63567  43.0031  51.2697 0001548 266.7918 112.0025 15.27574167  5817
STARLINK-32940          
1 63568U 25075W   26171.05559894  .00015563  00000+0  57350-3 0  9991
2 63568  43.0045  52.4350 0001115 262.5077  97.5648 15.27602516 67582
STARLINK-32959          
1 63569U 25076A   26171.13992750  .00015670  00000+0  57792-3 0  9993
2 63569  43.0030 107.0918 0001206 276.2037  83.8678 15.27569438 67455
STARLINK-32956          
1 63570U 25076B   26171.21288167  .00017413  00000+0  64033-3 0  9997
2 63570  43.0035 105.9117 0001480 268.6910  91.3773 15.27605050 67461
STARLINK-33722          
1 63571U 25076C   26171.16210048  .00011872  00000+0  44006-3 0  9996
2 63571  42.9950 102.8713 0001533 258.0484 102.0196 15.27591939 67494
STARLINK-33739          
1 63572U 25076D   26171.13139730  .00012760  00000+0  47201-3 0  9999
2 63572  43.0036 103.4991 0001372 262.0523  98.0173 15.27606892 67491
STARLINK-33683          
1 63573U 25076E   26171.13012626  .00015545  00000+0  57298-3 0  9995
2 63573  43.0039 103.4900 0000964 265.1868  94.8874 15.27593120 67498
STARLINK-33732          
1 63575U 25076G   26170.98650196  .00010375  00000+0  38583-3 0  9991
2 63575  42.9995 104.1364 0000473 265.5789  94.5008 15.27593867 67474
STARLINK-33800          
1 63576U 25076H   26171.22235073  .00011992  00000+0  44407-3 0  9991
2 63576  43.0027 102.4538 0001731 268.2245  91.8408 15.27617358 67513
STARLINK-33632          
1 63577U 25076J   26171.19294001  .00022522  00000+0  82563-3 0  9990
2 63577  43.0002 103.1004 0000854 249.3835 110.6925 15.27572843 67505
